[{"OBJECT_NAME":"STARLINK-11138 [DTC]","OBJECT_ID":"2024-107E","EPOCH":"2026-03-09T17:40:04.268928","MEAN_MOTION":15.69708684,"ECCENTRICITY":7.528e-5,"INCLINATION":53.1586,"RA_OF_ASC_NODE":251.0041,"ARG_OF_PERICENTER":70.9951,"MEAN_ANOMALY":289.1149,"EPHEMERIS_TYPE":0,"CLASSIFICATION_TYPE":"U","NORAD_CAT_ID":59949,"ELEMENT_SET_NO":999,"REV_AT_EPOCH":10221,"BSTAR":-5.082633e-6,"MEAN_MOTION_DOT":-1.204e-5,"MEAN_MOTION_DDOT":0},{"OBJECT_NAME":"THORAD AGENA D DEB","OBJECT_ID":"1970-025PF","EPOCH":"2026-03-08T02:58:32.488032","MEAN_MOTION":15.64290563,"ECCENTRICITY":0.00166136,"INCLINATION":99.9335,"RA_OF_ASC_NODE":127.481,"ARG_OF_PERICENTER":247.6747,"MEAN_ANOMALY":112.2743,"EPHEMERIS_TYPE":0,"CLASSIFICATION_TYPE":"U","NORAD_CAT_ID":17717,"ELEMENT_SET_NO":999,"REV_AT_EPOCH":15016,"BSTAR":0.0052904272,"MEAN_MOTION_DOT":0.00540965,"MEAN_MOTION_DDOT":0}]
